STARLINK-34176          
1 64104U 25110J   26068.26244104  .00015837  00000+0  54566-3 0  9991
2 64104  53.1611  28.9913 0001018 111.9699 248.1410 15.30200848 45811
KUIPER-00226            
1 67785U 26030X   26068.62629313  .00046834  00000+0  15530-2 0  9998
2 67785  51.8814 220.1252 0017713  64.2781 296.0030 15.30655594  5078
